{
    "links": {
        "self": "http://www.neowsapp.com/rest/v1/neo/54016809?api_key=iIulBulltgU6a56xZRHN4H3l9WmuAYTsLGpBGhQ2"
    },
    "id": "54016809",
    "neo_reference_id": "54016809",
    "name": "(2020 HW7)",
    "designation": "2020 HW7",
    "nasa_jpl_url": "http://ssd.jpl.nasa.gov/sbdb.cgi?sstr=54016809",
    "absolute_magnitude_h": 27.208,
    "estimated_diameter": {
        "kilometers": {
            "estimated_diameter_min": 0.0096151259,
            "estimated_diameter_max": 0.0215000752
        },
        "meters": {
            "estimated_diameter_min": 9.6151259302,
            "estimated_diameter_max": 21.5000751921
        },
        "miles": {
            "estimated_diameter_min": 0.0059745604,
            "estimated_diameter_max": 0.0133595232
        },
        "feet": {
            "estimated_diameter_min": 31.5456897568,
            "estimated_diameter_max": 70.5383066934
        }
    },
    "is_potentially_hazardous_asteroid": false,
    "close_approach_data": [
        {
            "close_approach_date": "2019-10-14",
            "close_approach_date_full": "2019-Oct-14 09:04",
            "epoch_date_close_approach": 1571043840000,
            "relative_velocity": {
                "kilometers_per_second": "7.7477855688",
                "kilometers_per_hour": "27892.0280475193",
                "miles_per_hour": "17331.0215387489"
            },
            "miss_distance": {
                "astronomical": "0.4749083475",
                "lunar": "184.7393471775",
                "kilometers": "71045277.231219825",
                "miles": "44145488.217990585"
            },
            "orbiting_body": "Earth"
        },
        {
            "close_approach_date": "2020-04-19",
            "close_approach_date_full": "2020-Apr-19 03:07",
            "epoch_date_close_approach": 1587265620000,
            "relative_velocity": {
                "kilometers_per_second": "9.1378935698",
                "kilometers_per_hour": "32896.4168513262",
                "miles_per_hour": "20440.5541263143"
            },
            "miss_distance": {
                "astronomical": "0.014098045",
                "lunar": "5.484139505",
                "kilometers": "2109037.50316415",
                "miles": "1310495.13599927"
            },
            "orbiting_body": "Earth"
        },
        {
            "close_approach_date": "2023-06-01",
            "close_approach_date_full": "2023-Jun-01 12:48",
            "epoch_date_close_approach": 1685623680000,
            "relative_velocity": {
                "kilometers_per_second": "6.4876581128",
                "kilometers_per_hour": "23355.5692060787",
                "miles_per_hour": "14512.2424325215"
            },
            "miss_distance": {
                "astronomical": "0.4243361221",
                "lunar": "165.0667514969",
                "kilometers": "63479780.030219927",
                "miles": "39444506.2447199126"
            },
            "orbiting_body": "Earth"
        },
        {
            "close_approach_date": "2024-07-11",
            "close_approach_date_full": "2024-Jul-11 03:27",
            "epoch_date_close_approach": 1720668420000,
            "relative_velocity": {
                "kilometers_per_second": "2.6839744074",
                "kilometers_per_hour": "9662.3078667917",
                "miles_per_hour": "6003.7823520073"
            },
            "miss_distance": {
                "astronomical": "0.1396647805",
                "lunar": "54.3295996145",
                "kilometers": "20893553.676817535",
                "miles": "12982652.241190583"
            },
            "orbiting_body": "Venus"
        },
        {
            "close_approach_date": "2025-11-14",
            "close_approach_date_full": "2025-Nov-14 22:45",
            "epoch_date_close_approach": 1763160300000,
            "relative_velocity": {
                "kilometers_per_second": "20.1215172794",
                "kilometers_per_hour": "72437.4622058713",
                "miles_per_hour": "45009.8220023093"
            },
            "miss_distance": {
                "astronomical": "0.3777197854",
                "lunar": "146.9329965206",
                "kilometers": "56506075.352697098",
                "miles": "35111247.0940040324"
            },
            "orbiting_body": "Earth"
        }
    ],
    "orbital_data": {
        "orbit_id": "3",
        "orbit_determination_date": "2020-08-21 06:33:51",
        "first_observation_date": "2020-04-26",
        "last_observation_date": "2020-04-30",
        "data_arc_in_days": 4,
        "observations_used": 23,
        "orbit_uncertainty": "8",
        "minimum_orbit_intersection": ".00297323",
        "jupiter_tisserand_invariant": "4.971",
        "epoch_osculation": "2458966.5",
        "eccentricity": ".346391183836265",
        "semi_major_axis": "1.288673175581784",
        "inclination": ".2469846735023764",
        "ascending_node_longitude": "345.0410733649272",
        "orbital_period": "534.3337541711639",
        "perihelion_distance": ".8422881487139707",
        "perihelion_argument": "154.7815935741789",
        "aphelion_distance": "1.735058202449597",
        "perihelion_time": "2458905.951878790949",
        "mean_anomaly": "40.79346188613791",
        "mean_motion": ".6737362129750101",
        "equinox": "J2000",
        "orbit_class": {
            "orbit_class_type": "APO",
            "orbit_class_description": "Near-Earth asteroid orbits which cross the Earth’s orbit similar to that of 1862 Apollo",
            "orbit_class_range": "a (semi-major axis) > 1.0 AU; q (perihelion) < 1.017 AU"
        }
    },
    "is_sentry_object": false
}